STARLINK-35687          
1 66524U 25265J   25344.58336806 -.00868035  00000+0 -16098-1 0  9996
2 66524  42.9997  66.5949 0002379 288.1809  52.4268 15.50816653  4642
STARLINK-35975          
1 66525U 25265K   25344.58336806 -.00118977  00000+0 -20501-2 0  9995
2 66525  42.9999  66.5906 0001472 272.3022  70.2991 15.50620559  4642
STARLINK-35932          
1 66526U 25265L   25344.58336806 -.00159589  00000+0 -27640-2 0  9991
2 66526  42.9998  66.5858 0001545 271.8254  72.6925 15.50641662  4539
STARLINK-35935          
1 66527U 25265M   25344.58336806 -.00129815  00000+0 -22401-2 0  9991
2 66527  43.0002  66.5825 0001432 268.4858  77.9456 15.50625567  4644
STARLINK-35928          
1 66528U 25265N   25344.58336806 -.00112635  00000+0 -19391-2 0  9998
2 66528  43.0001  66.5765 0001471 279.6896  68.6576 15.50618225  4649
STARLINK-35933          
1 66529U 25265P   25344.58336806 -.00547463  00000+0 -99249-2 0  9990
2 66529  42.9997  66.5713 0001697 274.3098  75.9255 15.50774479  4640
STARLINK-35961          
1 66530U 25265Q   25344.58336806 -.00130869  00000+0 -22584-2 0  9998
2 66530  43.0000  66.5665 0001556 273.2847  78.8993 15.50627851  4641
STARLINK-35960          
1 66531U 25265R   25344.58336806 -.00205176  00000+0 -35728-2 0  9997
2 66531  43.0001  66.5624 0001499 265.9872  88.1195 15.50665708  4641
STARLINK-35914          
1 66532U 25265S   25344.58336806 -.00152374  00000+0 -26368-2 0  9999
2 66532  43.0002  66.5580 0001536 269.6807  86.3375 15.50636643  4641
STARLINK-35707          
1 66533U 25265T   25344.58336806 -.00115539  00000+0 -19898-2 0  9992
2 66533  42.9999  66.5523 0001528 274.3040  83.6320 15.50620375  4640
STARLINK-35976          
1 66534U 25265U   25344.58336806 -.00130434  00000+0 -22508-2 0  9996
2 66534  43.0001  66.5477 0001571 271.1524  88.7003 15.50626588  4641
STARLINK-35514          
1 66535U 25265V   25344.58336806 -.00121028  00000+0 -20858-2 0  9992
2 66535  43.0001  66.5429 0001474 273.9372  87.8314 15.50624551  4645
